[{"OBJECT_NAME":"AJISAI (EGS)","OBJECT_ID":"1986-061A","EPOCH":"2026-03-09T23:02:01.063392","MEAN_MOTION":12.44515635,"ECCENTRICITY":0.00112705,"INCLINATION":50.0087,"RA_OF_ASC_NODE":92.5172,"ARG_OF_PERICENTER":287.6933,"MEAN_ANOMALY":156.5252,"EPHEMERIS_TYPE":0,"CLASSIFICATION_TYPE":"U","NORAD_CAT_ID":16908,"ELEMENT_SET_NO":999,"REV_AT_EPOCH":46803,"BSTAR":-1.6605877e-5,"MEAN_MOTION_DOT":-1.0e-6,"MEAN_MOTION_DDOT":0},{"OBJECT_NAME":"COSMOS 981","OBJECT_ID":"1978-005F","EPOCH":"2026-03-09T22:17:12.925248","MEAN_MOTION":12.46465593,"ECCENTRICITY":0.00206866,"INCLINATION":74.0273,"RA_OF_ASC_NODE":256.8962,"ARG_OF_PERICENTER":284.1928,"MEAN_ANOMALY":185.9326,"EPHEMERIS_TYPE":0,"CLASSIFICATION_TYPE":"U","NORAD_CAT_ID":10588,"ELEMENT_SET_NO":999,"REV_AT_EPOCH":18801,"BSTAR":5.7223202e-5,"MEAN_MOTION_DOT":-8.0e-8,"MEAN_MOTION_DDOT":0}]
